{
"type": "FeatureCollection",
"name": "region-cities",
"crs": { "type": "name", "properties": { "name": "urn:ogc:def:crs:OGC:1.3:CRS84" } },
"features": [
{ "type": "Feature", "properties": { "city": "Berlin", "boundary": "State/city boundary (union of 12 districts)", "epsg": 25833.0, "simplified_m": 50.0 }, "geometry": { "type": "MultiPolygon", "coordinates": [ [ [ [ 13.343347234706661, 52.411721685950504 ], [ 13.318498189991695, 52.402399428231853 ], [ 13.312064405840784, 52.399105377194928 ], [ 13.295932819668892, 52.414504321714901 ], [ 13.29695831247958, 52.415050146900974 ], [ 13.296752975031668, 52.416252530917404 ], [ 13.274197918822528, 52.404789487942985 ], [ 13.266965401442302, 52.404282503915923 ], [ 13.258057461529235, 52.406395071392247 ], [ 13.249780640615773, 52.404981959132407 ], [ 13.248991188490074, 52.411959347279634 ], [ 13.245951999570819, 52.42117511023411 ], [ 13.233141456222551, 52.42034329979716 ], [ 13.225060381061798, 52.421078114312742 ], [ 13.209713084507547, 52.416798510199762 ], [ 13.197246505862518, 52.415537817420287 ], [ 13.159349942377094, 52.402858199061036 ], [ 13.159388800399469, 52.39990652666939 ], [ 13.157795564607472, 52.39635572774106 ], [ 13.171165725706642, 52.397826717466351 ], [ 13.171757460335348, 52.395642320406289 ], [ 13.168768759697221, 52.394395545135787 ], [ 13.158869192945975, 52.393938989378462 ], [ 13.14577100902865, 52.395496989998556 ], [ 13.143204502440446, 52.397247721756614 ], [ 13.14181852891176, 52.397099642886268 ], [ 13.134707613421558, 52.39356340170783 ], [ 13.130373649893185, 52.390366189187731 ], [ 13.133979500374551, 52.388735921916577 ], [ 13.133180826309536, 52.387304580530873 ], [ 13.131304991710703, 52.387225433321198 ], [ 13.126734015246598, 52.389583640308267 ], [ 13.127293865558979, 52.391608399367733 ], [ 13.13119791963072, 52.391836105134523 ], [ 13.130167416548128, 52.390496792831748 ], [ 13.131491020419141, 52.391881795311235 ], [ 13.138950218017669, 52.39599234574635 ], [ 13.135711960905054, 52.396175249550609 ], [ 13.135129604789801, 52.39737392522801 ], [ 13.138102575451866, 52.397856162341732 ], [ 13.133509460316954, 52.399366460324082 ], [ 13.127424078924037, 52.396640027293799 ], [ 13.124781331687204, 52.3968694083811 ], [ 13.117750376217788, 52.402119353396927 ], [ 13.111819277482635, 52.403985477541426 ], [ 13.108325296210735, 52.407255593887328 ], [ 13.109267155631493, 52.408178607690445 ], [ 13.106382700100415, 52.408690034061088 ], [ 13.106933199575826, 52.409485589099425 ], [ 13.110630668852355, 52.40944336284295 ], [ 13.110424547448369, 52.410352056534776 ], [ 13.111797480176664, 52.410479963140695 ], [ 13.111511778025578, 52.411413282861233 ], [ 13.110136893376328, 52.411286007303417 ], [ 13.109624098471594, 52.412941122704318 ], [ 13.107109071070125, 52.413180087950344 ], [ 13.10714076980498, 52.409993251334612 ], [ 13.106186872651774, 52.409562074384858 ], [ 13.101002841767389, 52.41053893419344 ], [ 13.100859170832843, 52.413760541523963 ], [ 13.096450344804113, 52.413088910906239 ], [ 13.098977437254185, 52.410959524727261 ], [ 13.097392095639623, 52.409419966263698 ], [ 13.090767880913329, 52.41156042864521 ], [ 13.088347614730992, 52.419631237287682 ], [ 13.095839407614072, 52.421973808822599 ], [ 13.099313861887081, 52.425344119293477 ], [ 13.104567821987047, 52.423982572423739 ], [ 13.105409499149875, 52.425283072783905 ], [ 13.112783446809487, 52.429195837542991 ], [ 13.112073816971201, 52.432310247405752 ], [ 13.11393054964188, 52.432966252909594 ], [ 13.117218063090336, 52.436164469927007 ], [ 13.123153119303621, 52.438708867726632 ], [ 13.123121136605228, 52.439614993065589 ], [ 13.119768121381384, 52.441713756598837 ], [ 13.11901111869277, 52.444009227669795 ], [ 13.115364730019133, 52.445652042088817 ], [ 13.109296343456721, 52.450635496439467 ], [ 13.112029704916791, 52.454411775997606 ], [ 13.112674191972587, 52.457694255573657 ], [ 13.112409453527469, 52.458994895657341 ], [ 13.110502690607762, 52.459996956164588 ], [ 13.111428667060714, 52.463727686010529 ], [ 13.110556535086861, 52.465657465724696 ], [ 13.117234527471606, 52.473279886676416 ], [ 13.117693274521233, 52.477320298868833 ], [ 13.126276678589017, 52.478656909968578 ], [ 13.128333530375839, 52.479820531351848 ], [ 13.149590399102811, 52.496314835221931 ], [ 13.168824093828215, 52.509226821054703 ], [ 13.145630606845504, 52.517465965269238 ], [ 13.143182067172281, 52.519697889057994 ], [ 13.126997800053791, 52.51754729933738 ], [ 13.117382311523146, 52.517060658515128 ], [ 13.119506748545184, 52.530346397776086 ], [ 13.124184275065801, 52.539049973306639 ], [ 13.124964537531024, 52.543792145810485 ], [ 13.130471347688761, 52.555974668683952 ], [ 13.136329150156994, 52.552706615093165 ], [ 13.143214093609792, 52.552078472598161 ], [ 13.145581655962875, 52.55272330720981 ], [ 13.147287220131805, 52.555837308559077 ], [ 13.145799041375181, 52.560605357439975 ], [ 13.147141169901184, 52.561451400197335 ], [ 13.147517385244457, 52.56440720585983 ], [ 13.153546583104644, 52.573255818857305 ], [ 13.15315845758578, 52.578945290686995 ], [ 13.149610448856691, 52.583361122674702 ], [ 13.139156839620203, 52.580388572422557 ], [ 13.132476727218048, 52.579607515611933 ], [ 13.130260439159974, 52.583039980858693 ], [ 13.127964670136384, 52.583127754527034 ], [ 13.128964341087759, 52.587303074263936 ], [ 13.135477878529834, 52.587365549863414 ], [ 13.138453889315421, 52.588866596070602 ], [ 13.143506069605102, 52.58970491400062 ], [ 13.149285417877975, 52.5918732243534 ], [ 13.157057022998304, 52.59762559397965 ], [ 13.164529789821065, 52.598795432496587 ], [ 13.167896738817973, 52.597010790466115 ], [ 13.183422901441581, 52.593691871542966 ], [ 13.191738040016983, 52.590190456181972 ], [ 13.200347282251251, 52.588768259581755 ], [ 13.205375878607182, 52.58685278181872 ], [ 13.206710537824103, 52.586597684718569 ], [ 13.207339977476122, 52.588374681479621 ], [ 13.217397155141784, 52.587477111478975 ], [ 13.218853518528926, 52.592370608983551 ], [ 13.20818333381448, 52.599010611402846 ], [ 13.202323655904495, 52.6042490259685 ], [ 13.201625310604777, 52.606551010602097 ], [ 13.206882152097911, 52.609135858311532 ], [ 13.214823582278076, 52.619263198791359 ], [ 13.21676276005093, 52.620162279230605 ], [ 13.219760498359513, 52.624437611303179 ], [ 13.220543777070262, 52.628317018559116 ], [ 13.225123464568949, 52.628408579100196 ], [ 13.230395815687588, 52.627388751293672 ], [ 13.242427182820894, 52.628295668740321 ], [ 13.246414945771672, 52.627274376428346 ], [ 13.26030325153735, 52.627742841934335 ], [ 13.264234749058595, 52.626862949127194 ], [ 13.265201890352476, 52.634534349240312 ], [ 13.262152925087934, 52.640685438748179 ], [ 13.26959885407687, 52.639712696748326 ], [ 13.283833213718612, 52.641118426453303 ], [ 13.285132480901371, 52.652627775280649 ], [ 13.281909447070118, 52.652753419816193 ], [ 13.282769142163007, 52.660738676949336 ], [ 13.293690901400804, 52.65936224078181 ], [ 13.307118073156628, 52.659618565776007 ], [ 13.310097995294004, 52.657395440472641 ], [ 13.300429512565348, 52.653505273790309 ], [ 13.309407264502894, 52.642725295163039 ], [ 13.308232240016133, 52.640236542377131 ], [ 13.306269858071611, 52.639607263334455 ], [ 13.307062328763108, 52.637547934064052 ], [ 13.305784682491348, 52.637354684814007 ], [ 13.310273785625347, 52.630007248699528 ], [ 13.302609215230706, 52.627190113576617 ], [ 13.312986519865749, 52.628184145129438 ], [ 13.328690940016184, 52.625440354527008 ], [ 13.336683647252244, 52.622648349164614 ], [ 13.338727483036308, 52.623345019361842 ], [ 13.351071718897607, 52.623861804345054 ], [ 13.351484313752314, 52.622729046658861 ], [ 13.354692405558843, 52.623623318892768 ], [ 13.357639083247898, 52.622978355666575 ], [ 13.363685919945709, 52.625087117858335 ], [ 13.364070804096443, 52.624657253681256 ], [ 13.367657284855607, 52.62600581057626 ], [ 13.368882066423064, 52.625679138532206 ], [ 13.370802955630392, 52.627375284836504 ], [ 13.376377978646197, 52.628378260781005 ], [ 13.375827115636291, 52.6290379267611 ], [ 13.3766789496112, 52.628894779670276 ], [ 13.377022368665784, 52.629819258876175 ], [ 13.375822027908765, 52.631607108535199 ], [ 13.378709127786557, 52.634352552954482 ], [ 13.379401170039049, 52.633872061750779 ], [ 13.382859100228202, 52.635217302668124 ], [ 13.381813974248624, 52.63639661217136 ], [ 13.385079542583865, 52.636262983903123 ], [ 13.389205089883985, 52.637624194110508 ], [ 13.390609617459589, 52.639915098643954 ], [ 13.390144878414931, 52.642435562449826 ], [ 13.391300073325539, 52.64354700333579 ], [ 13.392247742288713, 52.643275665460514 ], [ 13.391912233294985, 52.644749450136409 ], [ 13.393178090581891, 52.64541075182845 ], [ 13.394554048589258, 52.647555159626961 ], [ 13.396388676527787, 52.647423852612711 ], [ 13.397937599193986, 52.64828894477656 ], [ 13.40788456207366, 52.642685626750236 ], [ 13.412292294307163, 52.643481951831056 ], [ 13.414736398598404, 52.642384977866087 ], [ 13.414258350111744, 52.641240181615757 ], [ 13.416550012222292, 52.639433808550713 ], [ 13.424354559028941, 52.635464876526598 ], [ 13.427630518808733, 52.637511732824834 ], [ 13.432722514822492, 52.63737783173773 ], [ 13.434261089684517, 52.637953848420324 ], [ 13.433389852688226, 52.641474453418027 ], [ 13.434009131527812, 52.644282789582228 ], [ 13.439790461216099, 52.645266918210361 ], [ 13.440821315868671, 52.649263073327795 ], [ 13.448737382676688, 52.650001323714925 ], [ 13.452097803177166, 52.649671669587264 ], [ 13.452084512812474, 52.648699416609084 ], [ 13.459732605599267, 52.64808143578243 ], [ 13.46572367463658, 52.651168575855117 ], [ 13.469966707036088, 52.651862925118294 ], [ 13.47390653910608, 52.654118541581184 ], [ 13.473512918109947, 52.656531230865241 ], [ 13.462383103698841, 52.657540230326155 ], [ 13.453945110026147, 52.661849854549828 ], [ 13.45078570288789, 52.662667382846614 ], [ 13.459553728300762, 52.668975147099133 ], [ 13.465928018710237, 52.667118417063534 ], [ 13.475492694787327, 52.675007703702029 ], [ 13.477273246383964, 52.673900780060393 ], [ 13.479487807820435, 52.675507659723522 ], [ 13.48008439154869, 52.674858393675926 ], [ 13.474585504017988, 52.668063713712101 ], [ 13.475832749433188, 52.666547563371758 ], [ 13.488424199077787, 52.670786679671387 ], [ 13.485359316853266, 52.659425587913475 ], [ 13.49075954785213, 52.654796715974129 ], [ 13.504722841987194, 52.649563703150015 ], [ 13.512827874523381, 52.645399462309356 ], [ 13.519266079190485, 52.646946010030113 ], [ 13.520391170099728, 52.644876970263681 ], [ 13.523021983682014, 52.645034669053331 ], [ 13.522439809690432, 52.640761429079674 ], [ 13.517816471310576, 52.629565301047833 ], [ 13.50585469924318, 52.625751924173038 ], [ 13.505458268667113, 52.619974762002023 ], [ 13.503514984386589, 52.619167449847176 ], [ 13.502778813366406, 52.618163510559832 ], [ 13.497124862046817, 52.606697106623706 ], [ 13.496661617590243, 52.605027238404276 ], [ 13.498973505327539, 52.605162106238467 ], [ 13.508118638231274, 52.592137821093374 ], [ 13.522878835331362, 52.592748432039613 ], [ 13.527693517443161, 52.592234525635554 ], [ 13.547125179964207, 52.587853047409325 ], [ 13.561855544071557, 52.580390765723649 ], [ 13.568571652743303, 52.573103940745526 ], [ 13.574971646249237, 52.573834326689273 ], [ 13.5769681707948, 52.57290179053674 ], [ 13.57788734540109, 52.571126326045665 ], [ 13.581542125650129, 52.57110606527133 ], [ 13.583346263722786, 52.567747008064821 ], [ 13.584431372155318, 52.559856922368702 ], [ 13.587600213318968, 52.555623595533426 ], [ 13.586381927150057, 52.54978489711484 ], [ 13.618713532508991, 52.544214226920374 ], [ 13.63737306968684, 52.542254188160697 ], [ 13.637648969720638, 52.540921332899345 ], [ 13.633945714495994, 52.537652707975028 ], [ 13.628858116769687, 52.537977390716712 ], [ 13.627538937281946, 52.537485291808004 ], [ 13.624822206512782, 52.538105474341606 ], [ 13.625688422150082, 52.530183536546907 ], [ 13.631559150947972, 52.530572121979368 ], [ 13.646254947374327, 52.529680145525596 ], [ 13.656911012773955, 52.529837005925451 ], [ 13.65850154491123, 52.525945023435646 ], [ 13.642458747833858, 52.518550220919018 ], [ 13.635780429696966, 52.514215912784955 ], [ 13.632673498783239, 52.511133859124826 ], [ 13.628899643912515, 52.505556019930168 ], [ 13.62400603577303, 52.494198202261963 ], [ 13.629717744230218, 52.493037079429278 ], [ 13.614892877574793, 52.480762337574816 ], [ 13.613550552570553, 52.475618623953757 ], [ 13.61648640945419, 52.474830411739909 ], [ 13.611366061512364, 52.470650892510257 ], [ 13.615068977195536, 52.469715025451947 ], [ 13.617123326820039, 52.471207582970884 ], [ 13.62117177043508, 52.470462557323913 ], [ 13.621383670266505, 52.466638631046898 ], [ 13.622758129974271, 52.466452725482696 ], [ 13.622905080138827, 52.468783855240297 ], [ 13.625209822247617, 52.468745517883157 ], [ 13.625341218859411, 52.473698469542882 ], [ 13.628180710650438, 52.473544055245206 ], [ 13.643215409322687, 52.479222775505868 ], [ 13.648305675119724, 52.478730880530456 ], [ 13.662651881281858, 52.473758235631777 ], [ 13.667239172802406, 52.474285446728395 ], [ 13.67864422742359, 52.469235621363872 ], [ 13.682774434887813, 52.46606878025257 ], [ 13.695433436256595, 52.464184602637118 ], [ 13.697532040194774, 52.460482832176034 ], [ 13.698347844510705, 52.455259784526177 ], [ 13.704614540122742, 52.454759729272403 ], [ 13.705257149274338, 52.459868487210308 ], [ 13.703356558273887, 52.460044781368396 ], [ 13.702096452419891, 52.464365526152292 ], [ 13.699079302718953, 52.468278423013828 ], [ 13.701258560740282, 52.468222721519275 ], [ 13.711519188747724, 52.463291586425882 ], [ 13.715963687143029, 52.46291580465239 ], [ 13.720580879857664, 52.456748959792456 ], [ 13.729080238450955, 52.450783062140502 ], [ 13.734350740635428, 52.450736477083609 ], [ 13.73775947149011, 52.449642167332165 ], [ 13.749248258349336, 52.448668393783166 ], [ 13.753485577507709, 52.447587149136787 ], [ 13.755394515536759, 52.446001980119952 ], [ 13.756442164521237, 52.446174161721601 ], [ 13.754379427854952, 52.443279570945762 ], [ 13.757075986089873, 52.44295963022148 ], [ 13.755320583703714, 52.438417693557355 ], [ 13.761159145035256, 52.43770850880378 ], [ 13.75998803030647, 52.436170265663563 ], [ 13.754447358203793, 52.436680784796494 ], [ 13.756301842938397, 52.441609224128662 ], [ 13.750505696750533, 52.44148202265545 ], [ 13.744072209970087, 52.438070546390307 ], [ 13.742885870582704, 52.432937699213589 ], [ 13.731429784839413, 52.433802653033673 ], [ 13.722807906081094, 52.437143747622265 ], [ 13.7296931671841, 52.433981943071487 ], [ 13.740104513204018, 52.432472777512061 ], [ 13.738942046840471, 52.428855277414328 ], [ 13.7417253116064, 52.428195411109314 ], [ 13.741275011213011, 52.426765162683573 ], [ 13.737659312658364, 52.42669419461604 ], [ 13.731069456731101, 52.42050970923745 ], [ 13.72980164422405, 52.416345086418673 ], [ 13.734611210361123, 52.41057113517904 ], [ 13.737170157709377, 52.409641741489736 ], [ 13.739034675211144, 52.407335629308513 ], [ 13.735360663665368, 52.405983667527053 ], [ 13.734269820318087, 52.402134938190727 ], [ 13.731137464819033, 52.40000592772558 ], [ 13.727450597597473, 52.4002325335656 ], [ 13.722789259224465, 52.398256999989059 ], [ 13.715869836041222, 52.399693892551809 ], [ 13.708684800830468, 52.395374373385046 ], [ 13.702347603221703, 52.393328205497625 ], [ 13.698699636576437, 52.390596210263233 ], [ 13.699013847525343, 52.39191248252979 ], [ 13.698269053430618, 52.391771378147489 ], [ 13.697342593659663, 52.389921748650409 ], [ 13.690605564323548, 52.385497560266792 ], [ 13.688871046356921, 52.385032990825721 ], [ 13.688024817775316, 52.386072495405635 ], [ 13.686831161907046, 52.385304474489601 ], [ 13.686179327530906, 52.383862622261503 ], [ 13.687914802033378, 52.382953431094627 ], [ 13.689721312045144, 52.383254323526032 ], [ 13.69516535922371, 52.38095490108936 ], [ 13.698834632236764, 52.381500952711598 ], [ 13.697209406944136, 52.37743772487439 ], [ 13.700405779817556, 52.377506660293228 ], [ 13.699956634337397, 52.375589889750074 ], [ 13.692853311311834, 52.36917818052072 ], [ 13.693083186668359, 52.367977953776837 ], [ 13.69127665556298, 52.367777565404836 ], [ 13.692202638989823, 52.367208734242574 ], [ 13.68999214140214, 52.367855175624335 ], [ 13.687221470640848, 52.367302051614097 ], [ 13.682151344206865, 52.369639758381759 ], [ 13.679208737099113, 52.369445274963248 ], [ 13.67118275702923, 52.366482041106671 ], [ 13.666664412158907, 52.36236134379822 ], [ 13.666202310848933, 52.35808928562367 ], [ 13.663634693239688, 52.357407570403382 ], [ 13.662023032081745, 52.354214255986236 ], [ 13.657086342311283, 52.351614405606796 ], [ 13.656113581410374, 52.34781378930731 ], [ 13.651153649771638, 52.342604923433129 ], [ 13.651694633670722, 52.339466986286567 ], [ 13.648422495893161, 52.338274270736683 ], [ 13.642817158163625, 52.339941231203724 ], [ 13.637167213454937, 52.34473101105268 ], [ 13.636318500248091, 52.346816650145179 ], [ 13.636701065587431, 52.348143687501775 ], [ 13.637793180739576, 52.348213422526676 ], [ 13.639085182403866, 52.360981236001777 ], [ 13.641144148678755, 52.363096671408911 ], [ 13.646099060083207, 52.365274524049894 ], [ 13.647189881180502, 52.367020560153932 ], [ 13.646830737244581, 52.370156367321705 ], [ 13.64209778040237, 52.370810317758696 ], [ 13.642678525114707, 52.377509045664496 ], [ 13.633223031862205, 52.376243534878213 ], [ 13.628513730053649, 52.381355843644847 ], [ 13.605819755941186, 52.373623541130435 ], [ 13.606808553245388, 52.376028397485022 ], [ 13.605469620667336, 52.377973096191852 ], [ 13.606397790807016, 52.37911787086982 ], [ 13.599383153288791, 52.385405134709664 ], [ 13.596119913334128, 52.385984687390895 ], [ 13.595342262772702, 52.386789048016269 ], [ 13.595203482290634, 52.388744174998266 ], [ 13.593676102203343, 52.389959520162293 ], [ 13.594141108342603, 52.3924418160125 ], [ 13.592695206823139, 52.393812961415605 ], [ 13.564159071401011, 52.388135334207384 ], [ 13.535492206104763, 52.388990935826548 ], [ 13.535151646327272, 52.393506670453618 ], [ 13.536305625083518, 52.397823279494062 ], [ 13.538431866760986, 52.40063329517362 ], [ 13.529692568858939, 52.397301546910093 ], [ 13.521797558860818, 52.400571323655186 ], [ 13.516003202647514, 52.40178771134493 ], [ 13.479762012406383, 52.395946039691964 ], [ 13.47760988762132, 52.403429360700315 ], [ 13.46801799981044, 52.420032806647725 ], [ 13.463547675813816, 52.421080406303027 ], [ 13.45468538760473, 52.419454284636423 ], [ 13.431932071811975, 52.41251497366892 ], [ 13.418747601886976, 52.40997903019489 ], [ 13.418418569694335, 52.407078084343176 ], [ 13.427445703303102, 52.386176033037842 ], [ 13.420813037732049, 52.376139905783717 ], [ 13.388432000339677, 52.377862121880753 ], [ 13.387300172237566, 52.388574361794895 ], [ 13.370355229544396, 52.388427210905277 ], [ 13.37195088365967, 52.393797451627705 ], [ 13.359366114803839, 52.398470288273806 ], [ 13.349480503627408, 52.403701894063111 ], [ 13.343057743604486, 52.407686410692762 ], [ 13.343347234706661, 52.411721685950504 ] ], [ [ 13.433925485439939, 52.641981678817835 ], [ 13.433623858372542, 52.642131974296625 ], [ 13.433585039159832, 52.641891405097034 ], [ 13.433925485439939, 52.641981678817835 ] ] ], [ [ [ 13.392700470654029, 52.645581618472299 ], [ 13.392920900857286, 52.645666093354826 ], [ 13.392785769328478, 52.645494709809 ], [ 13.392700470654029, 52.645581618472299 ] ] ], [ [ [ 13.393066484628143, 52.646008814231877 ], [ 13.393058027713492, 52.645908873563677 ], [ 13.393090160305524, 52.6460335366625 ], [ 13.393066484628143, 52.646008814231877 ] ] ], [ [ [ 13.503765626599536, 52.619205653478602 ], [ 13.505438096063596, 52.61968574058789 ], [ 13.503440043020751, 52.618994229992573 ], [ 13.503765626599536, 52.619205653478602 ] ] ] ] } },
{ "type": "Feature", "properties": { "city": "Amsterdam", "boundary": "Municipality (OSM relation 271110)", "epsg": 28992.0, "simplified_m": 50.0 }, "geometry": { "type": "MultiPolygon", "coordinates": [ [ [ [ 4.728777601067817, 52.400708304158627 ], [ 4.75782940109661, 52.396681004156271 ], [ 4.759124801097035, 52.379329204146053 ], [ 4.756433901094267, 52.377763504145115 ], [ 4.758574801096096, 52.371594404141497 ], [ 4.754901901091766, 52.358383804133716 ], [ 4.755683901092435, 52.356150004132346 ], [ 4.790541301126545, 52.341841704123887 ], [ 4.797765601133438, 52.335282504120009 ], [ 4.815435901150737, 52.327892704115577 ], [ 4.818425901153608, 52.32555720411419 ], [ 4.839405301174665, 52.327359404115242 ], [ 4.839476601174824, 52.329145704116293 ], [ 4.843961001179357, 52.330218504116921 ], [ 4.845236701180606, 52.329681604116622 ], [ 4.848006801183417, 52.330569904117112 ], [ 4.85592440119132, 52.330317804116945 ], [ 4.856755001191717, 52.321413304111672 ], [ 4.896291701231288, 52.322419904112152 ], [ 4.902532401237473, 52.321324404111515 ], [ 4.907840601242693, 52.31950480411038 ], [ 4.909135401243929, 52.318253204109624 ], [ 4.912375701247169, 52.31824800410962 ], [ 4.914281501249174, 52.320408004110902 ], [ 4.910730701245696, 52.321914104111833 ], [ 4.911350901246363, 52.32289930411239 ], [ 4.910334301245379, 52.323566304112816 ], [ 4.913881301248971, 52.32455150411338 ], [ 4.912931701248302, 52.330510404116879 ], [ 4.922550501258038, 52.333084204118407 ], [ 4.923765301259364, 52.335442704119792 ], [ 4.925773401261368, 52.33537270411977 ], [ 4.928493301264139, 52.336554804120468 ], [ 4.935623701271218, 52.33551400411978 ], [ 4.936511701272062, 52.334592004119237 ], [ 4.941705601277296, 52.335532904119788 ], [ 4.941721101277354, 52.336407004120311 ], [ 4.94954830128527, 52.338378604121424 ], [ 4.953053401288866, 52.340369904122603 ], [ 4.959696701295808, 52.346929404126485 ], [ 4.96582290130229, 52.354696704131065 ], [ 4.966239901302682, 52.354163804130735 ], [ 4.968310101304787, 52.354926904131204 ], [ 4.969594801306124, 52.356101704131881 ], [ 4.974490401310948, 52.354666404130995 ], [ 4.999320701335154, 52.341536304123117 ], [ 5.00398350133986, 52.342567504123672 ], [ 5.008473501344315, 52.34183510412322 ], [ 5.010188201346048, 52.342268204123449 ], [ 5.01589920135203, 52.348322904126995 ], [ 5.039056501375451, 52.354575604130581 ], [ 5.037679701375019, 52.375401304142862 ], [ 5.079162201417036, 52.388654104150412 ], [ 5.074261701413272, 52.413838504165234 ], [ 5.068269901407414, 52.416557904166865 ], [ 5.06541260140459, 52.417239404167262 ], [ 5.062556401401694, 52.416173304166698 ], [ 5.057756601396919, 52.416537804166936 ], [ 5.049177201388294, 52.415129304166172 ], [ 5.035470201374758, 52.41827400416809 ], [ 5.033468501372687, 52.41668540416714 ], [ 5.030044901369221, 52.415643504166574 ], [ 5.028357401367711, 52.419416404168793 ], [ 5.021611001361061, 52.421222104169892 ], [ 5.018205201357564, 52.419059604168645 ], [ 5.000156801339844, 52.425443104172501 ], [ 4.990445301330161, 52.425520804172599 ], [ 4.9891838013288, 52.423372504171375 ], [ 4.987101601326697, 52.422841704171034 ], [ 4.982636501322424, 52.426762304173359 ], [ 4.973319901312941, 52.42279730417107 ], [ 4.95594980129557, 52.421954404170663 ], [ 4.955878001295519, 52.422440304170927 ], [ 4.953602301293239, 52.422214704170834 ], [ 4.952769801292476, 52.423679404171722 ], [ 4.951332301291021, 52.423226204171428 ], [ 4.951481401291109, 52.421929704170687 ], [ 4.947788601287408, 52.421562204170478 ], [ 4.944069101283355, 52.414342504166235 ], [ 4.935142401274339, 52.412039804164955 ], [ 4.930716001269902, 52.411607604164722 ], [ 4.920441401259881, 52.416612804167649 ], [ 4.915690401255233, 52.418563804168855 ], [ 4.913594101253148, 52.418653704168904 ], [ 4.901885901241701, 52.42362300417188 ], [ 4.892458101232379, 52.42544900417289 ], [ 4.877666401217641, 52.425882804173241 ], [ 4.874112401214196, 52.427963904174469 ], [ 4.873336801213495, 52.429485704175377 ], [ 4.870741001210951, 52.43039460417593 ], [ 4.869697301209876, 52.429746104175521 ], [ 4.866691001206923, 52.430671704176071 ], [ 4.862677501202882, 52.429941304175642 ], [ 4.85794760119791, 52.424717104172622 ], [ 4.859867001199619, 52.420514804170153 ], [ 4.856078101195654, 52.416662204167906 ], [ 4.767537901107897, 52.428498104174921 ], [ 4.76718370110749, 52.427468104174309 ], [ 4.739208201079765, 52.431063804176389 ], [ 4.728777601067817, 52.400708304158627 ] ] ], [ [ [ 4.929328201263657, 52.308532104103769 ], [ 4.930256301264487, 52.306429804102528 ], [ 4.955240601288161, 52.278304904085658 ], [ 4.961053701293972, 52.278174204085538 ], [ 4.962244001295256, 52.280206504086742 ], [ 4.966165701299215, 52.280979804087167 ], [ 4.967674401300661, 52.279582304086333 ], [ 4.969726401302876, 52.283120804088455 ], [ 4.983506001316994, 52.290368104092728 ], [ 4.997475401330905, 52.289118404091894 ], [ 5.001789401335389, 52.292792904094071 ], [ 5.001851301335596, 52.295878804095906 ], [ 5.003226901336976, 52.296064804095991 ], [ 5.003834601337696, 52.298509304097458 ], [ 5.005264901339122, 52.298392804097361 ], [ 5.007891601341893, 52.301522004099219 ], [ 5.012988901347083, 52.303605304100458 ], [ 5.021543201355586, 52.302456804099712 ], [ 5.017932801352919, 52.323192304112091 ], [ 5.016653301351629, 52.322986904111957 ], [ 5.016133701351178, 52.324512104112884 ], [ 4.997858901332429, 52.313978904106719 ], [ 4.997101101331829, 52.31739240410878 ], [ 4.990572001325722, 52.326539704114204 ], [ 4.985300901320626, 52.330258704116474 ], [ 4.982850701318201, 52.33078430411679 ], [ 4.975305701310647, 52.33056170411669 ], [ 4.970253101305391, 52.326169304114075 ], [ 4.967868701303078, 52.327616804114982 ], [ 4.966602501301805, 52.327435504114895 ], [ 4.952674201287656, 52.322644004112071 ], [ 4.947657201282901, 52.328138304115363 ], [ 4.940493801275622, 52.325677804113958 ], [ 4.937619101272637, 52.323299404112532 ], [ 4.939926901274883, 52.321936004111734 ], [ 4.94104280127589, 52.319619804110332 ], [ 4.93958480127441, 52.319119804110052 ], [ 4.939830401274564, 52.317119604108846 ], [ 4.938041601272742, 52.316505504108477 ], [ 4.938723901273359, 52.315091104107658 ], [ 4.935229001269809, 52.313888804106973 ], [ 4.936351601270875, 52.312662804106211 ], [ 4.929328201263657, 52.308532104103769 ] ] ] ] } },
{ "type": "Feature", "properties": { "city": "London", "boundary": "Greater London (GLA boundary)", "epsg": 27700.0, "simplified_m": 50.0 }, "geometry": { "type": "MultiPolygon", "coordinates": [ [ [ [ -0.096862245381808, 51.690554271632649 ], [ -0.103815554355495, 51.691775566332694 ], [ -0.10925715931715, 51.69174555816857 ], [ -0.118247366832474, 51.688937860614587 ], [ -0.134649434884316, 51.688806730817362 ], [ -0.149370097329152, 51.685518380250798 ], [ -0.163493304784216, 51.688115061518879 ], [ -0.163607090045908, 51.682403100599743 ], [ -0.172473163574426, 51.673091314081965 ], [ -0.175329660267374, 51.673449571765268 ], [ -0.175440727095581, 51.672592522505838 ], [ -0.17700643151039, 51.672679787421067 ], [ -0.17671152657691, 51.672099694481474 ], [ -0.182085365591736, 51.668604036971416 ], [ -0.187790375999212, 51.667879310753662 ], [ -0.191066714301073, 51.6638967363305 ], [ -0.19666488628978, 51.6654818814321 ], [ -0.194852201453559, 51.668305517867694 ], [ -0.199005076054087, 51.668206525041256 ], [ -0.199871618800931, 51.670170261321118 ], [ -0.203352884218941, 51.670126459833277 ], [ -0.202229899386689, 51.667805423743012 ], [ -0.205634451660368, 51.668601168274442 ], [ -0.207959426472439, 51.666594503375684 ], [ -0.209838782299632, 51.667562873826469 ], [ -0.211133835935188, 51.66695494215022 ], [ -0.20786368102374, 51.662861200515238 ], [ -0.21213504470429, 51.661353547664298 ], [ -0.213393207053021, 51.662378047281663 ], [ -0.2188946684346, 51.660061562571165 ], [ -0.219800897129779, 51.66066071068385 ], [ -0.22646264773376, 51.657161882411863 ], [ -0.228919274044758, 51.659975811735599 ], [ -0.23422742985752, 51.658252794206746 ], [ -0.234707301314466, 51.659000981702704 ], [ -0.236677983526673, 51.658775236173376 ], [ -0.239199219187698, 51.65739950774131 ], [ -0.247865582103379, 51.655247907516205 ], [ -0.250582618921881, 51.656057308840104 ], [ -0.251332033743116, 51.655217802658136 ], [ -0.249856112912541, 51.654614883238693 ], [ -0.251876018384071, 51.647213628096395 ], [ -0.254489461393425, 51.643679802350881 ], [ -0.256171858353272, 51.643491701208106 ], [ -0.257332599408152, 51.641831840018853 ], [ -0.260449027373073, 51.642539048341355 ], [ -0.263272125682155, 51.644833515410134 ], [ -0.264358920506191, 51.643627512386431 ], [ -0.268346006585938, 51.643833916350793 ], [ -0.268246570706287, 51.642386445212267 ], [ -0.272866472807777, 51.642099356252466 ], [ -0.273713524647774, 51.638673972825934 ], [ -0.281390975149078, 51.638346086768941 ], [ -0.285500176905327, 51.636948536303869 ], [ -0.29612718073486, 51.635446944486702 ], [ -0.304325658459702, 51.636316596031193 ], [ -0.316672258240183, 51.64053556972614 ], [ -0.319792781603425, 51.63822066425336 ], [ -0.326546276704945, 51.636719202462395 ], [ -0.332971388895556, 51.633835941770855 ], [ -0.338283869586064, 51.629472620599358 ], [ -0.339811313819766, 51.630811637725017 ], [ -0.349222286877959, 51.626909515235532 ], [ -0.35976757191408, 51.625238247430794 ], [ -0.365536706776821, 51.621334197617372 ], [ -0.371612952435723, 51.619353114712382 ], [ -0.381991093723318, 51.617432018018341 ], [ -0.38637603551918, 51.615696609611938 ], [ -0.392678944184802, 51.615182428605536 ], [ -0.399465174888444, 51.613407466584228 ], [ -0.411134520426834, 51.613809672232861 ], [ -0.41661728040856, 51.616425015491558 ], [ -0.426481451299554, 51.617007072431221 ], [ -0.440575304667202, 51.620073279051404 ], [ -0.445548330017703, 51.619624706757591 ], [ -0.44887871416112, 51.615325306247591 ], [ -0.457130750183982, 51.612293888250086 ], [ -0.468904899374284, 51.616704966206711 ], [ -0.476691145518366, 51.621901228661308 ], [ -0.487858035627683, 51.626762847840119 ], [ -0.491536487903699, 51.630766674863231 ], [ -0.497623945681946, 51.631460653176845 ], [ -0.500307049972185, 51.628922292527385 ], [ -0.497633338091445, 51.626672466151696 ], [ -0.500174230185958, 51.622128851226499 ], [ -0.499260207067989, 51.621109162405808 ], [ -0.496808651457202, 51.620500522368545 ], [ -0.495389387232632, 51.618687526115323 ], [ -0.497886168138422, 51.614247702381512 ], [ -0.498945943750988, 51.611106814200539 ], [ -0.498316575708289, 51.609477489219657 ], [ -0.499231544879556, 51.608928074966038 ], [ -0.496313391146581, 51.602398436600609 ], [ -0.497032502889914, 51.601129859350728 ], [ -0.500231439195397, 51.601286751451013 ], [ -0.500881621179678, 51.600178229758122 ], [ -0.498568433282397, 51.594444065172389 ], [ -0.499555361441434, 51.592183463728652 ], [ -0.495741309549962, 51.588116079226026 ], [ -0.494702176412461, 51.584615605073019 ], [ -0.4896030244571, 51.581772448165054 ], [ -0.488553009661671, 51.579618800205886 ], [ -0.488935394791923, 51.577271368151663 ], [ -0.484026298138808, 51.575127287820251 ], [ -0.485533803099297, 51.573841087784814 ], [ -0.48401278540333, 51.571195726793313 ], [ -0.484750590986337, 51.566842247383207 ], [ -0.48257876455732, 51.56572610840837 ], [ -0.482793747569378, 51.562821707705176 ], [ -0.480752372131432, 51.561780956286732 ], [ -0.481128188734253, 51.560763409309388 ], [ -0.477498969858741, 51.560273927769032 ], [ -0.476595805968761, 51.558031225608225 ], [ -0.477718453953711, 51.554867050215627 ], [ -0.478882102187145, 51.554836291029481 ], [ -0.482664876376718, 51.551522206160001 ], [ -0.486597101825202, 51.550034431111079 ], [ -0.489373638692519, 51.546332130688754 ], [ -0.491354928975016, 51.546123818710264 ], [ -0.49178560052637, 51.541604470672645 ], [ -0.49358490277311, 51.541005324944742 ], [ -0.495487354140603, 51.538545197863968 ], [ -0.493328770780338, 51.535836927242173 ], [ -0.490481831425953, 51.534157451258203 ], [ -0.491188761065365, 51.533272725092139 ], [ -0.488970637514771, 51.529070904121518 ], [ -0.490819303336394, 51.526443821586945 ], [ -0.491173189326285, 51.521279665071361 ], [ -0.490366675090368, 51.520169536213054 ], [ -0.492329707580366, 51.517077200373876 ], [ -0.489560793874535, 51.514077710332501 ], [ -0.489786456422919, 51.511526815262158 ], [ -0.485549707045996, 51.51008825861711 ], [ -0.483173911564229, 51.506647693907624 ], [ -0.485044639343965, 51.5050748586266 ], [ -0.484659165055014, 51.503578965978704 ], [ -0.486166962082789, 51.500910664010604 ], [ -0.488744813814869, 51.500206554452262 ], [ -0.489743958669348, 51.498966810574942 ], [ -0.488835943568924, 51.498542368424459 ], [ -0.488664172536214, 51.495985461846729 ], [ -0.490436075485166, 51.493853747882135 ], [ -0.491484069858513, 51.493048042616373 ], [ -0.494795069929896, 51.492679647598806 ], [ -0.494942233201203, 51.491317403178037 ], [ -0.498629724746095, 51.489261362947317 ], [ -0.498307631590578, 51.48845511951906 ], [ -0.49916916757809, 51.488581251750205 ], [ -0.498877644980633, 51.485703559043422 ], [ -0.503202153915011, 51.481017143392599 ], [ -0.505942246907768, 51.472478713143055 ], [ -0.507670822176686, 51.47011683165077 ], [ -0.510153764825925, 51.46876806578787 ], [ -0.510276940047244, 51.467505295488422 ], [ -0.507317333149454, 51.466917322995734 ], [ -0.505665199278595, 51.467779337781565 ], [ -0.500349403745332, 51.467129665785045 ], [ -0.496985649161341, 51.465876213824068 ], [ -0.493861664691329, 51.462722936769907 ], [ -0.492209452216834, 51.462972373932203 ], [ -0.48960986630387, 51.461785178778619 ], [ -0.485862465836425, 51.461314194701231 ], [ -0.477120799516311, 51.461336710193365 ], [ -0.473560201551306, 51.458633980212547 ], [ -0.461278833820251, 51.457215239632134 ], [ -0.458640421491248, 51.45631546058177 ], [ -0.459294084854824, 51.452715328202068 ], [ -0.461319964491501, 51.452391246028412 ], [ -0.4614816229048, 51.448992373972992 ], [ -0.457461606025623, 51.449090581144134 ], [ -0.457443712816649, 51.442998794185897 ], [ -0.455391176812466, 51.442119257793998 ], [ -0.456467565499377, 51.43810663842013 ], [ -0.446288571245322, 51.439996417299426 ], [ -0.447716905908361, 51.435002985601656 ], [ -0.439752281345799, 51.434619609092337 ], [ -0.439983301524829, 51.430626488437305 ], [ -0.429534358076315, 51.428797619661978 ], [ -0.42942468300993, 51.429395037351533 ], [ -0.427831374830911, 51.429252328971934 ], [ -0.427485546427689, 51.430819539508761 ], [ -0.423498703435735, 51.430877593943841 ], [ -0.42142857359132, 51.432088900796529 ], [ -0.41907861978604, 51.432359420111084 ], [ -0.41729415357586, 51.431918133232358 ], [ -0.417900332580899, 51.431028006221545 ], [ -0.413806046412397, 51.430075277356522 ], [ -0.414352335695932, 51.429295857336818 ], [ -0.412452598396876, 51.428781873380622 ], [ -0.413085985968339, 51.427855268076271 ], [ -0.410868387661108, 51.427342344494363 ], [ -0.408441324443703, 51.423834760444272 ], [ -0.405910262839797, 51.422665497413526 ], [ -0.397781620021701, 51.42355010508733 ], [ -0.391363263793434, 51.422335403229368 ], [ -0.386641611900281, 51.42008083126828 ], [ -0.387693558674132, 51.419328254709356 ], [ -0.386122592700029, 51.41428063184307 ], [ -0.390292373545808, 51.414337976146605 ], [ -0.389176890305625, 51.410319935436085 ], [ -0.383777370666229, 51.410118797027266 ], [ -0.383350032894806, 51.408538254711878 ], [ -0.378097481421138, 51.407888337032063 ], [ -0.37315043694028, 51.4085994476576 ], [ -0.364397872437714, 51.411664664404739 ], [ -0.359043728393439, 51.411881168797329 ], [ -0.355357024492401, 51.410752150539665 ], [ -0.355109126215297, 51.409807132476871 ], [ -0.349890619001824, 51.406980158621856 ], [ -0.340508382518728, 51.40301668412922 ], [ -0.327817843316837, 51.391837129932604 ], [ -0.324590195244254, 51.391502357830291 ], [ -0.317272286431484, 51.393354328441696 ], [ -0.314111539628356, 51.390217193116499 ], [ -0.316793416199406, 51.388573199682462 ], [ -0.315958361297682, 51.387632255065995 ], [ -0.31316633552005, 51.388832202363176 ], [ -0.311717326418475, 51.387430955356088 ], [ -0.309253697560405, 51.380447654747698 ], [ -0.307365393877026, 51.378383542563434 ], [ -0.308671819435756, 51.375448282907549 ], [ -0.314318037641082, 51.3746375435814 ], [ -0.316925567380139, 51.372916934040049 ], [ -0.318261326657393, 51.363504520088505 ], [ -0.319932894161052, 51.359630166872201 ], [ -0.323728796925871, 51.354411315510568 ], [ -0.328022681888328, 51.352133745765961 ], [ -0.330510089460861, 51.348419393834398 ], [ -0.327457063342874, 51.344005536090265 ], [ -0.328955561980633, 51.340231253971481 ], [ -0.329092722756339, 51.33026244847408 ], [ -0.330732895682125, 51.32885425123505 ], [ -0.32829073851086, 51.326462502771321 ], [ -0.319283658578574, 51.327810122076002 ], [ -0.305686239605966, 51.335407141592029 ], [ -0.303879343432174, 51.343251142474607 ], [ -0.299175643648333, 51.348367993797154 ], [ -0.292906501894288, 51.352373821401464 ], [ -0.291084917472626, 51.356559356231564 ], [ -0.285077176802921, 51.361210672492916 ], [ -0.2882781717287, 51.362080307608728 ], [ -0.284081380569096, 51.365143873377015 ], [ -0.279819321525266, 51.367825056341552 ], [ -0.276560093447776, 51.368807740108906 ], [ -0.272167330504945, 51.372498429232024 ], [ -0.264678625694851, 51.375622461684962 ], [ -0.261148516227918, 51.379599801376884 ], [ -0.253580681836633, 51.378783123814173 ], [ -0.24608773147207, 51.380189199618336 ], [ -0.24503026320079, 51.380033979144947 ], [ -0.244600697316557, 51.373790157197931 ], [ -0.245404783480811, 51.366845453297493 ], [ -0.241150347945119, 51.366261920779372 ], [ -0.240890818630087, 51.367036773704307 ], [ -0.237051690463545, 51.366899955792967 ], [ -0.233819602096289, 51.365323482437056 ], [ -0.233191275545289, 51.366010029844752 ], [ -0.226872912778666, 51.362593712333286 ], [ -0.222736374978178, 51.357086087725385 ], [ -0.222091848806924, 51.351324625959187 ], [ -0.22042083724675, 51.351419750861048 ], [ -0.217777500823708, 51.345631390299701 ], [ -0.217264371967982, 51.343387075575876 ], [ -0.229822624054203, 51.336522837827644 ], [ -0.229205333979671, 51.335888503871416 ], [ -0.220942458869751, 51.329863032177947 ], [ -0.215898423398091, 51.329860894974544 ], [ -0.214095169124925, 51.330350481220336 ], [ -0.211905973710082, 51.333308067723195 ], [ -0.213030768842429, 51.335541069954331 ], [ -0.20229823047876, 51.340088953805711 ], [ -0.201199280022041, 51.339884121658585 ], [ -0.197319305348875, 51.343595111645932 ], [ -0.187357667214287, 51.340782103430023 ], [ -0.181996084933319, 51.337851826602197 ], [ -0.174139097238832, 51.333211521399861 ], [ -0.172863601012444, 51.330013528180814 ], [ -0.169894457620795, 51.330245915445701 ], [ -0.170065827576083, 51.329474306223737 ], [ -0.163076742761245, 51.330264196191216 ], [ -0.162290489595871, 51.328889439900912 ], [ -0.164362110946805, 51.328126042487469 ], [ -0.164186967163008, 51.326040538978312 ], [ -0.160600047887098, 51.323241444719159 ], [ -0.158634525095089, 51.323975865745801 ], [ -0.156440390445131, 51.321387380342323 ], [ -0.161879755711848, 51.319625697830311 ], [ -0.161177330725484, 51.31752292642657 ], [ -0.159581045788397, 51.31710487491862 ], [ -0.157169628587369, 51.313389788178831 ], [ -0.158330514054269, 51.310985356062801 ], [ -0.154315273081957, 51.310317865763523 ], [ -0.15716299480451, 51.306708924347028 ], [ -0.154509134240986, 51.306448634313689 ], [ -0.157734965581619, 51.304427486974845 ], [ -0.155317671165834, 51.30127437975294 ], [ -0.153360499378201, 51.301677886222713 ], [ -0.149814618176007, 51.300203792561845 ], [ -0.148451743592931, 51.300703839420613 ], [ -0.145625076226158, 51.299828225855904 ], [ -0.14355893999779, 51.301260420969221 ], [ -0.142833051982191, 51.29998004859781 ], [ -0.140854890729285, 51.299552106108351 ], [ -0.137313471437397, 51.300780919954718 ], [ -0.136327868880213, 51.298267981913916 ], [ -0.13443129457364, 51.298378087245709 ], [ -0.131109344736706, 51.295473572900697 ], [ -0.130530898969593, 51.29311725083884 ], [ -0.124292897497747, 51.28675867762027 ], [ -0.117775213287209, 51.287094773193772 ], [ -0.11482262571643, 51.292433905322284 ], [ -0.111052093546164, 51.292252657210639 ], [ -0.09432412781173, 51.299353948657547 ], [ -0.096922538504607, 51.300105749340702 ], [ -0.097377265971981, 51.301114048308875 ], [ -0.095719217192953, 51.301488176995072 ], [ -0.094386782519346, 51.300613067605539 ], [ -0.091167892394705, 51.301472516294353 ], [ -0.091171629650028, 51.303391672546425 ], [ -0.088639778123816, 51.305217305813791 ], [ -0.08882507945518, 51.307218564331997 ], [ -0.081931634279323, 51.310647326500209 ], [ -0.081892963428113, 51.312608997166066 ], [ -0.084802354596643, 51.315867180174465 ], [ -0.078830295067622, 51.318089555874487 ], [ -0.078923801908182, 51.31976921272846 ], [ -0.071016525128048, 51.321232766303204 ], [ -0.070028182555422, 51.318892645209772 ], [ -0.064086239212912, 51.318596739215906 ], [ -0.056251604096558, 51.321664006680727 ], [ -0.054882351222086, 51.321257277174347 ], [ -0.051307124820226, 51.322447859405578 ], [ -0.049765439311798, 51.325266674937197 ], [ -0.047868766916262, 51.325245028172517 ], [ -0.048749301654415, 51.32871838888866 ], [ -0.051080871630728, 51.330845363489281 ], [ -0.050261265521674, 51.332639340881876 ], [ -0.041967028345519, 51.333810383013748 ], [ -0.037892222207528, 51.33870448852705 ], [ -0.032770403605632, 51.337437893455963 ], [ -0.025958228735117, 51.338560050764265 ], [ -0.022056742444827, 51.338099601933443 ], [ -0.014328013234624, 51.329804659196071 ], [ -0.010993215726755, 51.333557566601435 ], [ -0.008734438261336, 51.333900568704863 ], [ -0.007118176538673, 51.333695075231958 ], [ -0.00050283386491, 51.328778326546534 ], [ 0.002294777103789, 51.329138827857626 ], [ 0.006580568744874, 51.315656353203508 ], [ 0.010348621457376, 51.316140317130589 ], [ 0.008391172872334, 51.310361465697326 ], [ 0.015009387976351, 51.291786031177878 ], [ 0.019101245415634, 51.29168405341683 ], [ 0.020953059190943, 51.296778361201291 ], [ 0.024839097841734, 51.302154945590679 ], [ 0.032909432022173, 51.30752087884364 ], [ 0.042303858680609, 51.30192263399465 ], [ 0.043093091575302, 51.299054338350366 ], [ 0.044298557402806, 51.298580923764035 ], [ 0.042396460951233, 51.292673039239354 ], [ 0.045731685962904, 51.294004295609199 ], [ 0.05078992009883, 51.293986842557956 ], [ 0.054390019010855, 51.292089050363437 ], [ 0.056050300617582, 51.292395357223555 ], [ 0.058510266360491, 51.289353734560216 ], [ 0.073368504601046, 51.291605166964253 ], [ 0.081526636099243, 51.291823724034472 ], [ 0.085693093185924, 51.293084194886966 ], [ 0.091184756559202, 51.296827355821016 ], [ 0.086338875962234, 51.300172170897966 ], [ 0.082816302901701, 51.305633704711887 ], [ 0.084878020186713, 51.306044884418455 ], [ 0.083571899153731, 51.310528016733755 ], [ 0.085070581360847, 51.312598615942811 ], [ 0.085029354100414, 51.316023169228821 ], [ 0.087785251613728, 51.318312341821304 ], [ 0.096180109838217, 51.321292911260343 ], [ 0.100176285455284, 51.324072181791756 ], [ 0.100792240202924, 51.325585504930963 ], [ 0.103241005455974, 51.325995696696857 ], [ 0.104901948548036, 51.327412872453138 ], [ 0.109758895662049, 51.326684210568487 ], [ 0.110153906651587, 51.328035987157001 ], [ 0.114211190820825, 51.327397996198968 ], [ 0.11574358682416, 51.329507132257213 ], [ 0.11790395901774, 51.329663218879553 ], [ 0.117892087351238, 51.33062122616839 ], [ 0.121684509178136, 51.333636363604093 ], [ 0.120011224118165, 51.334739588715962 ], [ 0.118471112192805, 51.33998181347328 ], [ 0.11728308770593, 51.339781177610362 ], [ 0.116681194625883, 51.341302947009545 ], [ 0.118456316326021, 51.344147786614442 ], [ 0.125212918519159, 51.345867991021194 ], [ 0.13177727517466, 51.345506663628129 ], [ 0.136958152150111, 51.344174622994615 ], [ 0.136200031979071, 51.345936758584493 ], [ 0.139440984462594, 51.346982767535309 ], [ 0.138646803949243, 51.347413682589128 ], [ 0.139532660054301, 51.348519828839258 ], [ 0.142620164310491, 51.350734973118833 ], [ 0.145895499077596, 51.358224682203364 ], [ 0.144848150478203, 51.35843545293114 ], [ 0.145048604902618, 51.362851012446995 ], [ 0.148347824162561, 51.366371541250736 ], [ 0.147246806333055, 51.366974513188929 ], [ 0.149438135284105, 51.369162754691992 ], [ 0.151619755010995, 51.368378905029601 ], [ 0.152057783094181, 51.369693731807274 ], [ 0.150126921164133, 51.370157319871396 ], [ 0.151206185044488, 51.372187000936378 ], [ 0.149600457894467, 51.373582575403091 ], [ 0.151736323937688, 51.375436350354676 ], [ 0.152537092520127, 51.37523006384361 ], [ 0.153236301777161, 51.37803648306182 ], [ 0.150974709550743, 51.379085283390211 ], [ 0.151133424285203, 51.379896221816288 ], [ 0.149613429242667, 51.380089619422016 ], [ 0.150458883513911, 51.386018321281249 ], [ 0.148654208883024, 51.388668301607026 ], [ 0.149835510604075, 51.390872303417723 ], [ 0.147533996736359, 51.392156396972382 ], [ 0.147740991527213, 51.392800967518689 ], [ 0.162384114610027, 51.39249025598037 ], [ 0.158980375342501, 51.395820910376337 ], [ 0.155249198231203, 51.403971436823518 ], [ 0.15270936228968, 51.406346452696333 ], [ 0.148692094399298, 51.408130677465145 ], [ 0.149311759748262, 51.409140931203474 ], [ 0.152932422456434, 51.408708441179229 ], [ 0.153770122517066, 51.411265111692117 ], [ 0.149751950685427, 51.41165815681773 ], [ 0.149159962536968, 51.412435239168367 ], [ 0.151154293697566, 51.415063340083009 ], [ 0.151055517402999, 51.417615633028547 ], [ 0.154094240341938, 51.417762162663394 ], [ 0.154636665843909, 51.418469850252251 ], [ 0.151158919987342, 51.420430412342327 ], [ 0.15313494341634, 51.422322269853353 ], [ 0.153763555708407, 51.427523188703049 ], [ 0.155874998830738, 51.430876608369381 ], [ 0.159085582658108, 51.430224851880475 ], [ 0.159837265484031, 51.429202861146258 ], [ 0.160695354061156, 51.429674476838557 ], [ 0.1643787583369, 51.428619952396936 ], [ 0.166693502878012, 51.431295851622764 ], [ 0.166689954603014, 51.435051466769309 ], [ 0.17285440001383, 51.443245153601914 ], [ 0.176017562728893, 51.442005708112909 ], [ 0.178725392536085, 51.443477021038184 ], [ 0.179576047392331, 51.443117678476384 ], [ 0.181084583934321, 51.444182263282144 ], [ 0.184277603850861, 51.444655199614154 ], [ 0.187464961512954, 51.446874602479284 ], [ 0.187644235599245, 51.448697738550699 ], [ 0.191012163868921, 51.448787748997795 ], [ 0.19301999198206, 51.451701766437083 ], [ 0.195890549205418, 51.45237112391758 ], [ 0.195986167003168, 51.451783873824525 ], [ 0.198015607871161, 51.451842093324238 ], [ 0.203380175703843, 51.454355819136225 ], [ 0.203835651455788, 51.4559831054993 ], [ 0.20257412611962, 51.45615159164786 ], [ 0.203272034827244, 51.458748279172049 ], [ 0.210612985771367, 51.462481320950687 ], [ 0.211472076100658, 51.468365105184944 ], [ 0.208803961145286, 51.470956834647581 ], [ 0.211877410192214, 51.473316168221132 ], [ 0.211568855333308, 51.475092701741247 ], [ 0.216470394095418, 51.476799687626283 ], [ 0.216919435961119, 51.479908299256415 ], [ 0.220156133991513, 51.48000624517784 ], [ 0.223704373008966, 51.482272781537027 ], [ 0.216730764084409, 51.485040771538465 ], [ 0.210335407002182, 51.485877366068038 ], [ 0.210553981247691, 51.490243099680903 ], [ 0.211932564849705, 51.491044488846931 ], [ 0.213074667917904, 51.49502223829677 ], [ 0.215022802066007, 51.496483721414208 ], [ 0.22165408089306, 51.497810580506467 ], [ 0.224298154759306, 51.497313458388163 ], [ 0.2299653106299, 51.499365891730449 ], [ 0.226614382549859, 51.504489144649547 ], [ 0.226632988947378, 51.506585982377082 ], [ 0.23344165855922, 51.506670439059484 ], [ 0.241919315147332, 51.507960106447655 ], [ 0.239974286610474, 51.513053233032458 ], [ 0.241142428200206, 51.513743167515727 ], [ 0.237176061343989, 51.519334404791117 ], [ 0.240195349459552, 51.519351406859371 ], [ 0.243936595529009, 51.518337390983639 ], [ 0.24490582475715, 51.518759505010813 ], [ 0.24429954107537, 51.520471718112923 ], [ 0.240724657281, 51.521207373735159 ], [ 0.241038388402397, 51.522606109386807 ], [ 0.242856063870305, 51.524392473841701 ], [ 0.245837504226116, 51.523516138376102 ], [ 0.247090002943583, 51.525092030004203 ], [ 0.246324714135644, 51.526532106539605 ], [ 0.248882284254204, 51.527409386807363 ], [ 0.248964789036153, 51.528674041308193 ], [ 0.250852003658879, 51.528818601103225 ], [ 0.253834378957809, 51.517885878677667 ], [ 0.258928154368005, 51.517763592465244 ], [ 0.260303097585495, 51.518371120772549 ], [ 0.26368296517898, 51.517869759995399 ], [ 0.264256378915638, 51.521642129042121 ], [ 0.26500935631647, 51.522901025711981 ], [ 0.266704935896645, 51.523312530825926 ], [ 0.266751586006454, 51.524513120210152 ], [ 0.265386689872245, 51.524955877255422 ], [ 0.265347337657722, 51.532150281960881 ], [ 0.297754971937772, 51.535318592595225 ], [ 0.297205318986509, 51.537662193342832 ], [ 0.300858857079239, 51.538134668429187 ], [ 0.300722910945627, 51.538756066942135 ], [ 0.321533545187156, 51.540502586809602 ], [ 0.331590445207314, 51.54079683285395 ], [ 0.331429460223758, 51.540045499641145 ], [ 0.334024283464579, 51.540503809861136 ], [ 0.333902556908023, 51.542493739255889 ], [ 0.331445331351202, 51.545942948612321 ], [ 0.328899948662683, 51.545837031517124 ], [ 0.327816045212532, 51.550994576367778 ], [ 0.32515742579836, 51.55305818800808 ], [ 0.322305817631714, 51.552781928237991 ], [ 0.322053398469717, 51.554198858762952 ], [ 0.318896952260828, 51.555191195242166 ], [ 0.318435333294455, 51.556780424795029 ], [ 0.315294794089149, 51.557835300279905 ], [ 0.313035130390195, 51.565818160779564 ], [ 0.290289747124413, 51.56429939856514 ], [ 0.286704943862092, 51.571506281229176 ], [ 0.286752682174235, 51.573464054887872 ], [ 0.285093125295937, 51.574128605183638 ], [ 0.282029442238367, 51.57883138229073 ], [ 0.271288149813506, 51.589030200326278 ], [ 0.269335445489529, 51.595274958442609 ], [ 0.270339352523538, 51.597310450464278 ], [ 0.269878920481354, 51.599574800018736 ], [ 0.262276447959052, 51.600024583048423 ], [ 0.254008768889446, 51.601598160110726 ], [ 0.257998675778846, 51.604911874176153 ], [ 0.258079250003428, 51.606507482311542 ], [ 0.263115481569605, 51.607319716212444 ], [ 0.264325325738625, 51.607832373509979 ], [ 0.264104290923718, 51.608877124607567 ], [ 0.25279425182821, 51.617428730101686 ], [ 0.237351117946757, 51.624073412275344 ], [ 0.224087783729222, 51.631737731011206 ], [ 0.222076910450537, 51.630126479484503 ], [ 0.212250979406538, 51.626979277998835 ], [ 0.208462631971514, 51.626682817750165 ], [ 0.203614257359091, 51.625173207950347 ], [ 0.194775135838808, 51.625714718379285 ], [ 0.189814493416624, 51.625104069907337 ], [ 0.189400615968638, 51.624490375954466 ], [ 0.18837156157857, 51.625413342458913 ], [ 0.185997172606616, 51.625522309383861 ], [ 0.185931812395892, 51.624373334076992 ], [ 0.181238052770949, 51.62582662134492 ], [ 0.180397236658947, 51.624472614970301 ], [ 0.168901268343252, 51.621420129876057 ], [ 0.16548425614452, 51.622445410807039 ], [ 0.1559125053689, 51.62332112607514 ], [ 0.136106469974637, 51.62360204160337 ], [ 0.129187557803003, 51.621443478075385 ], [ 0.12419860867836, 51.617505908981812 ], [ 0.119307375269711, 51.615368537493808 ], [ 0.116710215275871, 51.616921666825242 ], [ 0.10963186559475, 51.613961783545136 ], [ 0.103837932728535, 51.612551323679845 ], [ 0.103414552427225, 51.613453690440323 ], [ 0.100168483269622, 51.612724910453139 ], [ 0.098068441541083, 51.615421612201139 ], [ 0.092284937663926, 51.613574276177864 ], [ 0.094835581975789, 51.610777006723282 ], [ 0.091873853385929, 51.6082147050233 ], [ 0.092581148842811, 51.606196693323774 ], [ 0.088921981169841, 51.604853588692563 ], [ 0.087145269178462, 51.604467029017997 ], [ 0.084475066650425, 51.606358895959289 ], [ 0.079170184036581, 51.607047387472377 ], [ 0.072832275910766, 51.604687361502712 ], [ 0.064010950201281, 51.607224943594453 ], [ 0.062567891155207, 51.607059658739921 ], [ 0.052631279055024, 51.612015222777565 ], [ 0.04892138383295, 51.613571013910409 ], [ 0.04821337931705, 51.613212866924833 ], [ 0.048483668021935, 51.614981514743342 ], [ 0.050176541336626, 51.616390802074449 ], [ 0.054211531729299, 51.616720454794802 ], [ 0.053711318300316, 51.618279553321891 ], [ 0.043705273416301, 51.616941561280491 ], [ 0.040902418813226, 51.615675579911951 ], [ 0.029082699605129, 51.625113207490244 ], [ 0.021819008322532, 51.628832767911732 ], [ 0.025738734727713, 51.634565427635877 ], [ 0.025159246716519, 51.637289378594296 ], [ 0.023082837370812, 51.637718129024812 ], [ 0.022719571594799, 51.641115487204523 ], [ 0.017420637617226, 51.640257887338365 ], [ 0.00989873816484, 51.64144974615175 ], [ 0.001067281906708, 51.641762379834411 ], [ -0.000494630719152, 51.643710744894371 ], [ -0.003984052832069, 51.642717014499141 ], [ -0.004559382217784, 51.643537944004393 ], [ -0.008191388856569, 51.643608564798463 ], [ -0.007343735449236, 51.646161650051724 ], [ -0.012259681709656, 51.64622872428869 ], [ -0.011793755709808, 51.652978957442564 ], [ -0.008922631242088, 51.660400731354294 ], [ -0.011488021402714, 51.663794884340255 ], [ -0.010323890660387, 51.676634943873559 ], [ -0.011065487021142, 51.680869646576639 ], [ -0.043671520717003, 51.683096834676874 ], [ -0.049180273480328, 51.684272046481468 ], [ -0.056600048045844, 51.682988659029576 ], [ -0.062016723867996, 51.683008036310866 ], [ -0.067183967785185, 51.684129114430434 ], [ -0.079678502730622, 51.689063167675677 ], [ -0.085373909318518, 51.690145328779025 ], [ -0.096862245381808, 51.690554271632649 ] ] ] ] } },
{ "type": "Feature", "properties": { "city": "Thessaloniki", "boundary": "Municipality (OSM relation 1770680)", "epsg": 2100.0, "simplified_m": 50.0 }, "geometry": { "type": "MultiPolygon", "coordinates": [ [ [ [ 22.899463888312368, 40.651970082447249 ], [ 22.90044368832687, 40.642078182466349 ], [ 22.901652288326574, 40.641682682466289 ], [ 22.901140288322456, 40.644609282460799 ], [ 22.902463588321712, 40.64444638246021 ], [ 22.90283108832244, 40.643801782461232 ], [ 22.901655288323227, 40.643853882461968 ], [ 22.902504388327177, 40.640879482467305 ], [ 22.906051588329142, 40.637889582470848 ], [ 22.905479988337589, 40.632676682481645 ], [ 22.908792788334491, 40.633090082478532 ], [ 22.910482588334123, 40.632512982478538 ], [ 22.912620288331578, 40.633131782475807 ], [ 22.913336488322127, 40.638929682463726 ], [ 22.915399088321394, 40.638413782463338 ], [ 22.91687688832522, 40.63521158246872 ], [ 22.918947688324479, 40.634693982468328 ], [ 22.917848588320492, 40.637814282462848 ], [ 22.919677888319846, 40.637351182462488 ], [ 22.921459488322451, 40.634800882466358 ], [ 22.923780288321325, 40.634407582465542 ], [ 22.922089388318426, 40.637108482461308 ], [ 22.924145488317038, 40.637021582460086 ], [ 22.925516388318801, 40.635212582462749 ], [ 22.927073388318071, 40.634935782462229 ], [ 22.925808688316007, 40.636886182459207 ], [ 22.928595488314009, 40.636839382457367 ], [ 22.930269188316885, 40.634159682461544 ], [ 22.932127288313154, 40.635689882457214 ], [ 22.935592988314351, 40.633236082459732 ], [ 22.93401628831754, 40.631928782463433 ], [ 22.934807488317791, 40.631379182463974 ], [ 22.937456588312429, 40.633584482457735 ], [ 22.94718698831467, 40.627426582463329 ], [ 22.947770688317597, 40.62525088246727 ], [ 22.950997588318572, 40.623054782469403 ], [ 22.951845188321304, 40.620865982473205 ], [ 22.950531388338298, 40.610462882494907 ], [ 22.949390888339536, 40.610208782496194 ], [ 22.950401488340312, 40.609212682497486 ], [ 22.94877148835657, 40.599430682518161 ], [ 22.946669488359863, 40.598308382521843 ], [ 22.947373288361909, 40.596633482524709 ], [ 22.94852348836061, 40.596926782523333 ], [ 22.949107088362211, 40.595603782525579 ], [ 22.947647988363908, 40.595206282527379 ], [ 22.948234788365308, 40.594010082529365 ], [ 22.946964988367014, 40.593518582531232 ], [ 22.94812008836718, 40.592848682531752 ], [ 22.946684088370244, 40.591544382535361 ], [ 22.947466088370518, 40.590989182535914 ], [ 22.950132388365557, 40.592936782530188 ], [ 22.954249488367644, 40.589583382534052 ], [ 22.957560288361503, 40.591982082526968 ], [ 22.959958788363721, 40.589378982530491 ], [ 22.962643588358812, 40.591275282524848 ], [ 22.970308288361721, 40.585678282530722 ], [ 22.972063888356438, 40.588267682524354 ], [ 22.971464688356729, 40.588371382524549 ], [ 22.972262988348774, 40.593157682514445 ], [ 22.976167388343796, 40.594501982509023 ], [ 22.975380988342707, 40.595590682507407 ], [ 22.97878598833811, 40.596933782502397 ], [ 22.978373888336431, 40.598224382500071 ], [ 22.980594588329257, 40.601816382491371 ], [ 22.978826788328107, 40.603417882489396 ], [ 22.981177288322449, 40.605957282482699 ], [ 22.980764988320491, 40.607428682480055 ], [ 22.982604088317512, 40.608473282476673 ], [ 22.981458588316713, 40.609544782475353 ], [ 22.982651888315537, 40.609736382474125 ], [ 22.983291788312822, 40.611194082470789 ], [ 22.981525588312234, 40.612427582469522 ], [ 22.981914488311286, 40.612848182468433 ], [ 22.98787698830996, 40.610833382468314 ], [ 22.989904988304509, 40.613393282461807 ], [ 22.984630588305105, 40.61554998246114 ], [ 22.983878488300057, 40.619197182454386 ], [ 22.977972188298793, 40.622866782451148 ], [ 22.979268888291212, 40.627171482441668 ], [ 22.981130288287495, 40.628682182437352 ], [ 22.984933288271669, 40.637112982417882 ], [ 22.981955288272349, 40.638116482417942 ], [ 22.980633088270991, 40.639638082415843 ], [ 22.979061188272389, 40.639483982417225 ], [ 22.978429888278232, 40.636000282424625 ], [ 22.976967988281974, 40.63427938242905 ], [ 22.970480488293031, 40.630234382441614 ], [ 22.96987688828769, 40.633991482434524 ], [ 22.957945788296392, 40.63410768244254 ], [ 22.960810888286339, 40.639254982430295 ], [ 22.959268788286668, 40.639783382430295 ], [ 22.96026958828454, 40.640678482427823 ], [ 22.959102488284326, 40.641385482427204 ], [ 22.963024288279293, 40.642752282421768 ], [ 22.962227088276872, 40.644714782418397 ], [ 22.955766488282407, 40.644239082423816 ], [ 22.954690988285304, 40.642880482427273 ], [ 22.951303588284379, 40.645114982425142 ], [ 22.949417788287857, 40.643770282429152 ], [ 22.945602188288611, 40.645126282429068 ], [ 22.943326388291872, 40.644111182432674 ], [ 22.944195788288756, 40.645703182428868 ], [ 22.941103488290395, 40.646135482430175 ], [ 22.940828188289093, 40.647112582428385 ], [ 22.938094388288324, 40.648935182426619 ], [ 22.935375188291911, 40.647917182430547 ], [ 22.935255288285127, 40.652379982421721 ], [ 22.934229388285793, 40.652444182422308 ], [ 22.933946388292203, 40.648421482430514 ], [ 22.931938588293605, 40.6484779824318 ], [ 22.928606988293854, 40.649925682431203 ], [ 22.923256588299775, 40.648661782437436 ], [ 22.919547788299095, 40.650898882435541 ], [ 22.917153088301141, 40.650721682437535 ], [ 22.915920488303385, 40.649859282440104 ], [ 22.912891488303273, 40.651399082439113 ], [ 22.906088588305671, 40.653123082440374 ], [ 22.905194088308324, 40.651827982443571 ], [ 22.905762688308403, 40.651506782443825 ], [ 22.903388288314012, 40.649004682450453 ], [ 22.901429388311985, 40.651273282447278 ], [ 22.899463888312368, 40.651970082447249 ] ] ] ] } }
]
}
